NORAD_CAT_ID,OBJECT_NAME,OBJECT_TYPE,EPOCH,MEAN_MOTION,ECCENTRICITY,INCLINATION,RA_OF_ASC_NODE,ARG_OF_PERICENTER,MEAN_ANOMALY,BSTAR,MEAN_MOTION_DOT,MEAN_MOTION_DDOT,TLE_LINE0,TLE_LINE1,TLE_LINE2,SEMIMAJOR_AXIS,PERIOD,APOGEE,PERIGEE,DECAYED
53738.0,STARLINK-4662,PAYLOAD,2022-11-18 06:00:00,15.08841107,0.0001617,53.215,284.2889,55.6445,326.2665,-0.0016448,-0.00026371,0.0,0 STARLINK-4662,1 53738U 22107AQ  22322.25001157 -.00026371  00000-0 -16448-2 0  9996,2 53738  53.2150 284.2889 0001617  55.6445 326.2665 15.08841107 11534,6917.877,95.437,540.861,538.623,0.0
53738.0,STARLINK-4662,PAYLOAD,2022-11-18 14:00:01,15.08838517,0.0001479,53.215,282.7913,56.551,336.9491,-0.0012652,-0.00020366,0.0,0 STARLINK-4662,1 53738U 22107AQ  22322.58334491 -.00020366  00000-0 -12652-2 0  9993,2 53738  53.2150 282.7913 0001479  56.5510 336.9491 15.08838517  1304,6917.885,95.438,540.773,538.727,0.0
53738.0,STARLINK-4662,PAYLOAD,2022-11-18 22:00:00,15.0883557,0.0001444,53.2152,281.2943,63.1496,341.9315,0.0012955,0.00020387,0.0,0 STARLINK-4662,1 53738U 22107AQ  22322.91667824  .00020387  00000-0  12955-2 0  9996,2 53738  53.2152 281.2943 0001444  63.1496 341.9315 15.08835570  1309,6917.894,95.438,540.758,538.76,0.0
53738.0,STARLINK-4662,PAYLOAD,2022-11-19 14:00:01,15.088784900000002,0.0001564999999999,53.2157,278.3028,59.9849,8.3045,-0.0042279,-0.0006702,0.0,0 STARLINK-4662,1 53738U 22107AQ  22323.58334491 -.00067020  00000-0 -42279-2 0  9990,2 53738  53.2157 278.3028 0001565  59.9849   8.3045 15.08878490  1306,6917.763000000001,95.435,540.71,538.545,0.0
53738.0,STARLINK-4662,PAYLOAD,2022-11-19 22:00:00,15.08852043,0.0001556,53.2153,276.8048,65.9571,13.935,-0.0020093,-0.00032134,0.0,0 STARLINK-4662,1 53738U 22107AQ  22323.91667824 -.00032134  00000-0 -20093-2 0  9994,2 53738  53.2153 276.8048 0001556  65.9571  13.9350 15.08852043  1303,6917.844,95.437,540.785,538.632,0.0
53738.0,STARLINK-4662,PAYLOAD,2022-11-20 14:00:01,15.0883426,0.0001522,53.2151,273.8121,62.1109,40.9521,-0.000457,-7.553e-05,0.0,0 STARLINK-4662,1 53738U 22107AQ  22324.58334491 -.00007553  00000-0 -45700-3 0  9999,2 53738  53.2151 273.8121 0001522  62.1109  40.9521 15.08834260  1300,6917.898,95.438,540.816,538.71,0.0
53738.0,STARLINK-4662,PAYLOAD,2022-11-20 22:00:00,15.08857606,0.000158,53.2152,272.3154,67.795,46.8471,-0.0027066,-0.00043127,0.0,0 STARLINK-4662,1 53738U 22107AQ  22324.91667824 -.00043127  00000-0 -27066-2 0  9996,2 53738  53.2152 272.3154 0001580  67.7950  46.8471 15.08857606  1308,6917.8269999999975,95.436,540.785,538.599,0.0
53738.0,STARLINK-4662,PAYLOAD,2022-11-21 08:00:01,15.08803167,0.0001733,53.2148,270.4464,60.049,159.0852,0.0031899,0.00050794,0.0,0 STARLINK-4662,1 53738U 22107AQ  22325.33334491  .00050794  00000-0  31899-2 0  9999,2 53738  53.2148 270.4464 0001733  60.0490 159.0852 15.08803167 11990,6917.993,95.44,541.057,538.659,0.0
53738.0,STARLINK-4662,PAYLOAD,2022-11-21 14:00:01,15.08832188,0.0001646,53.2149,269.3227,66.2393,71.5725,-5.7572e-05,-1.204e-05,0.0,0 STARLINK-4662,1 53738U 22107AQ  22325.58334491 -.00001204  00000-0 -57572-4 0  9998,2 53738  53.2149 269.3227 0001646  66.2393  71.5725 15.08832188  1304,6917.904,95.438,540.908,538.631,0.0
53738.0,STARLINK-4662,PAYLOAD,2022-11-21 22:00:00,15.0885042,0.0001675999999999,53.215,267.8262,69.9828,79.4099,-5.3621e-05,-1.142e-05,0.0,0 STARLINK-4662,1 53738U 22107AQ  22325.91667824 -.00001142  00000-0 -53621-4 0  9996,2 53738  53.2150 267.8262 0001676  69.9828  79.4099 15.08850420  1304,6917.849,95.437,540.873,538.554,0.0
53738.0,STARLINK-4662,PAYLOAD,2022-11-22 14:00:01,15.08830082,0.0001576999999999,53.2148,264.8332,65.8871,106.7823,0.0003551,5.366e-05,0.0,0 STARLINK-4662,1 53738U 22107AQ  22326.58335648  .00005366  00000-0  35510-3 0  9992,2 53738  53.2148 264.8332 0001577  65.8871 106.7823 15.08830082  1300,6917.911,95.438,540.867,538.685,0.0
53738.0,STARLINK-4662,PAYLOAD,2022-11-22 22:00:00,15.08862222,0.0001614,53.2149,263.337,68.6219,115.5631,-0.0026028,-0.00041499,0.0,0 STARLINK-4662,1 53738U 22107AQ  22326.91667824 -.00041499  00000-0 -26028-2 0  9995,2 53738  53.2149 263.3370 0001614  68.6219 115.5631 15.08862222  1302,6917.812,95.436,540.794,538.561,0.0
53738.0,STARLINK-4662,PAYLOAD,2022-11-23 08:00:01,15.08815294,0.0001622,53.2146,261.4678,58.0929,230.5946,0.0019214,0.00030403,0.0,0 STARLINK-4662,1 53738U 22107AQ  22327.33334491  .00030403  00000-0  19214-2 0  9993,2 53738  53.2146 261.4678 0001622  58.0929 230.5946 15.08815294 12293,6917.956,95.439,540.943,538.6990000000002,0.0
53738.0,STARLINK-4662,PAYLOAD,2022-11-23 14:00:01,15.08826057,0.0001541999999999,53.2149,260.3439,63.9296,143.4434,0.00072892,0.00011327,0.0,0 STARLINK-4662,1 53738U 22107AQ  22327.58334491  .00011327  00000-0  72892-3 0  9996,2 53738  53.2149 260.3439 0001542  63.9296 143.4434 15.08826057  1305,6917.9230000000025,95.438,540.855,538.721,0.0
53738.0,STARLINK-4662,PAYLOAD,2022-11-23 22:00:00,15.08851778,0.0001629999999999,53.215,258.8479,66.3697,152.58100000000005,-0.00064007,-0.00010464,0.0,0 STARLINK-4662,1 53738U 22107AQ  22327.91667824 -.00010464  00000-0 -64007-3 0  9994,2 53738  53.2150 258.8479 0001630  66.3697 152.5810 15.08851778  1300,6917.844,95.437,540.837,538.582,0.0
53738.0,STARLINK-4662,PAYLOAD,2022-11-24 08:00:01,15.08855677,0.0001656,53.2148,256.9785,56.8842,266.5684,-0.0016813,-0.00026958,0.0,0 STARLINK-4662,1 53738U 22107AQ  22328.33334491 -.00026958  00000-0 -16813-2 0  9998,2 53738  53.2148 256.9785 0001656  56.8842 266.5684 15.08855677 12444,6917.831999999999,95.437,540.8430000000002,538.552,0.0
53738.0,STARLINK-4662,PAYLOAD,2022-11-24 14:00:01,15.08824306,0.0001531999999999,53.2152,255.8548,61.7028,180.4602,0.00074253,0.00011544,0.0,0 STARLINK-4662,1 53738U 22107AQ  22328.58334491  .00011544  00000-0  74253-3 0  9991,2 53738  53.2152 255.8548 0001532  61.7028 180.4602 15.08824306  1300,6917.928000000001,95.439,540.8530000000002,538.734,0.0
53738.0,STARLINK-4662,PAYLOAD,2022-11-24 22:00:00,15.08849562,0.0001622,53.2152,254.3589,63.603,190.1357,-0.00089337,-0.00014482,0.0,0 STARLINK-4662,1 53738U 22107AQ  22328.91667824 -.00014482  00000-0 -89337-3 0  9992,2 53738  53.2152 254.3589 0001622  63.6030 190.1357 15.08849562  1309,6917.851,95.437,540.8380000000002,538.594,0.0
53738.0,STARLINK-4662,PAYLOAD,2022-11-25 08:00:01,15.08861238,0.0001662,53.215,252.4894,55.0857,303.1498,-0.0020015,-0.00032019,0.0,0 STARLINK-4662,1 53738U 22107AQ  22329.33334491 -.00032019  00000-0 -20015-2 0  9993,2 53738  53.2150 252.4894 0001662  55.0857 303.1498 15.08861238 12602,6917.815,95.436,540.83,538.531,0.0
53738.0,STARLINK-4662,PAYLOAD,2022-11-25 14:00:01,15.08824582,0.0001536,53.2154,251.3657,60.9071,216.0475,0.001126,0.0001767,0.0,0 STARLINK-4662,1 53738U 22107AQ  22329.58334491  .00017670  00000-0  11260-2 0  9996,2 53738  53.2154 251.3657 0001536  60.9071 216.0475 15.08824582  1307,6917.928000000001,95.439,540.855,538.73,0.0
53738.0,STARLINK-4662,PAYLOAD,2022-11-25 22:00:00,15.08854422,0.0001585999999999,53.2154,249.8699,61.4047,227.1292,-0.00062583,-0.00010238,0.0,0 STARLINK-4662,1 53738U 22107AQ  22329.91667824 -.00010238  00000-0 -62583-3 0  9992,2 53738  53.2154 249.8699 0001586  61.4047 227.1292 15.08854422 12688,6917.8359999999975,95.437,540.798,538.604,0.0
53738.0,STARLINK-4662,PAYLOAD,2022-11-26 14:00:01,15.08832734,0.0001506999999999,53.2152,246.8766,60.9858,250.7818,0.0010716,0.00016804,0.0,0 STARLINK-4662,1 53738U 22107AQ  22330.58334491  .00016804  00000-0  10716-2 0  9991,2 53738  53.2152 246.8766 0001507  60.9858 250.7818 15.08832734  1300,6917.903,95.438,540.81,538.725,0.0
53738.0,STARLINK-4662,PAYLOAD,2022-11-26 22:00:00,15.08839891,0.0001611,53.2152,245.3809,64.297,259.0753,-0.0011433,-0.00018438,0.0,0 STARLINK-4662,1 53738U 22107AQ  22330.91667824 -.00018438  00000-0 -11433-2 0  9991,2 53738  53.2152 245.3809 0001611  64.2970 259.0753 15.08839891  1301,6917.880999999999,95.438,540.86,538.631,0.0
53738.0,STARLINK-4662,PAYLOAD,2022-11-27 06:00:00,15.08834677,0.0001631,53.2147,243.8855,57.4082,277.5561,0.00058484,9.031e-05,0.0,0 STARLINK-4662,1 53738U 22107AQ  22331.25001157  .00009031  00000-0  58484-3 0  9995,2 53738  53.2147 243.8855 0001631  57.4082 277.5561 15.08834677 12883,6917.897,95.438,540.89,538.633,0.0
53738.0,STARLINK-4662,PAYLOAD,2022-11-27 14:00:01,15.08799014,0.0001448,53.2148,242.3874,64.7968,281.7687,0.00301,0.00047888,0.0,0 STARLINK-4662,1 53738U 22107AQ  22331.58334491  .00047888  00000-0  30100-2 0  9997,2 53738  53.2148 242.3874 0001448  64.7968 281.7687 15.08799014  1305,6918.005999999999,95.44,540.872,538.869,0.0
53738.0,STARLINK-4662,PAYLOAD,2022-11-27 22:00:00,15.08843948,0.0001525,53.2148,240.892,63.2741,294.8512,-0.0012847,-0.00020678,0.0,0 STARLINK-4662,1 53738U 22107AQ  22331.91667824 -.00020678  00000-0 -12847-2 0  9991,2 53738  53.2148 240.8920 0001525  63.2741 294.8512 15.08843948  1307,6917.868,95.437,540.788,538.678,0.0
53738.0,STARLINK-4662,PAYLOAD,2022-11-28 00:00:00,15.08838818,0.0001574,53.2146,240.5184,61.1105,29.9143,-0.00090886,-0.00014723,0.0,0 STARLINK-4662,1 53738U 22107AQ  22332.00001157 -.00014723  00000-0 -90886-3 0  9997,2 53738  53.2146 240.5184 0001574  61.1105  29.9143 15.08838818 13006,6917.884,95.438,540.8380000000002,538.66,0.0
53738.0,STARLINK-4662,PAYLOAD,2022-11-28 22:00:01,15.08845436,0.000146,53.2161,236.4028,62.8089,330.142,-0.0013914,-0.00022367,0.0,0 STARLINK-4662,1 53738U 22107AQ  22332.91668981 -.00022367  00000-0 -13914-2 0  9990,2 53738  53.2161 236.4028 0001460  62.8089 330.1420 15.08845436  1306,6917.864000000001,95.437,540.739,538.719,0.0
53738.0,STARLINK-4662,PAYLOAD,2022-11-29 14:00:01,15.08800974,0.000151,53.2155,233.4089,68.5375,347.6112,0.0028549,0.00045392,0.0,0 STARLINK-4662,1 53738U 22107AQ  22333.58335648  .00045392  00000-0  28549-2 0  9996,2 53738  53.2155 233.4089 0001510  68.5375 347.6112 15.08800974  1309,6918.0,95.44,540.909,538.82,0.0
